[{"OBJECT_NAME":"GONETS-M 18","OBJECT_ID":"2020-068B","EPOCH":"2026-03-09T23:59:00.572352","MEAN_MOTION":12.42868942,"ECCENTRICITY":0.00185595,"INCLINATION":82.492,"RA_OF_ASC_NODE":48.3521,"ARG_OF_PERICENTER":247.7925,"MEAN_ANOMALY":112.1186,"EPHEMERIS_TYPE":0,"CLASSIFICATION_TYPE":"U","NORAD_CAT_ID":46487,"ELEMENT_SET_NO":999,"REV_AT_EPOCH":24682,"BSTAR":5.3308776e-5,"MEAN_MOTION_DOT":1.7e-7,"MEAN_MOTION_DDOT":0},{"OBJECT_NAME":"THORAD DELTA 1 DEB","OBJECT_ID":"1974-089BP","EPOCH":"2026-03-09T21:33:08.241120","MEAN_MOTION":12.51523231,"ECCENTRICITY":0.00722164,"INCLINATION":101.9823,"RA_OF_ASC_NODE":203.5939,"ARG_OF_PERICENTER":318.1492,"MEAN_ANOMALY":159.9193,"EPHEMERIS_TYPE":0,"CLASSIFICATION_TYPE":"U","NORAD_CAT_ID":8306,"ELEMENT_SET_NO":999,"REV_AT_EPOCH":33453,"BSTAR":0.0034889642,"MEAN_MOTION_DOT":5.0e-6,"MEAN_MOTION_DDOT":0}]
